H1 CPF 01  gfz 2022 02 25 01  5561 tandemx   
H2 1003001  6202 36605    2022 02 25 00 59 42 2022 03 02 00 00 42   120 1 1  0 0 0
H9
10 0 59635  20142.000000  0    4665785.861   -142195.638  -5074162.319
10 0 59635  20262.000000  0    3961042.399   -329597.215  -5634066.760
10 0 59635  20382.000000  0    3184446.555   -498316.761  -6095506.189
10 0 59635  20502.000000  0    2349886.303   -644298.126  -6450509.725
10 0 59635  20622.000000  0    1472287.843   -764134.213  -6692957.963
10 0 59635  20742.000000  0     567350.424   -855139.658  -6818678.301
10 0 59635  20862.000000  0    -348731.183   -915405.991  -6825509.351
10 0 59635  20982.000000  0   -1259549.862   -943838.885  -6713333.122
10 0 59635  21102.000000  0   -2148773.066   -940177.515  -6484077.479
10 0 59635  21222.000000  0   -3000429.294   -904995.189  -6141685.512
10 0 59635  21342.000000  0   -3799188.146   -839681.862  -5692055.003
10 0 59635  21462.000000  0   -4530634.999   -746408.589  -5142948.689
10 0 59635  21582.000000  0   -5181533.590   -628073.875  -4503871.238
10 0 59635  21702.000000  0   -5740071.113   -488233.593  -3785916.412
10 0 59635  21822.000000  0   -6196082.951   -331014.907  -3001584.419
10 0 59635  21942.000000  0   -6541249.600   -161015.270  -2164570.400
10 0 59635  22062.000000  0   -6769261.956     16810.174  -1289528.813
10 0 59635  22182.000000  0   -6875950.628    197272.079   -391815.071
10 0 59635  22302.000000  0   -6859371.221    375076.752    512790.543
10 0 59635  22422.000000  0   -6719845.718    544959.757   1408366.511
10 0 59635  22542.000000  0   -6459960.163    701819.399   2279138.826
10 0 59635  22662.000000  0   -6084515.945    840846.897   3109768.387
10 0 59635  22782.000000  0   -5600435.526    957649.908   3885629.567
10 0 59635  22902.000000  0   -5016625.899   1048365.978   4593072.832
10 0 59635  23022.000000  0   -4343804.679   1109763.217   5219666.777
10 0 59635  23142.000000  0   -3594293.570   1139325.660   5754415.037
10 0 59635  23262.000000  0   -2781784.365   1135321.993   6187946.337
10 0 59635  23382.000000  0   -1921081.362   1096855.898   6512674.759
10 0 59635  23502.000000  0   -1027825.003   1023897.803   6722926.379
10 0 59635  23622.000000  0    -118204.900    917296.431   6815031.235
10 0 59635  23742.000000  0     791333.324    778770.561   6787382.801
10 0 59635  23862.000000  0    1684384.185    610881.316   6640464.131
10 0 59635  23982.000000  0    2544877.023    416985.395   6376840.135
10 0 59635  24102.000000  0    3357365.124    201169.648   6001116.648
10 0 59635  24222.000000  0    4107305.497    -31832.309   5519864.911
10 0 59635  24342.000000  0    4781323.068   -276739.857   4941512.301
10 0 59635  24462.000000  0    5367455.516   -527839.527   4276200.549
10 0 59635  24582.000000  0    5855374.085   -779111.893   3535612.789
10 0 59635  24702.000000  0    6236576.234  -1024368.236   2732770.857
10 0 59635  24822.000000  0    6504543.784  -1257393.974   1881804.969
10 0 59635  24942.000000  0    6654862.026  -1472094.590    997700.995
10 0 59635  25062.000000  0    6685298.539  -1662642.414     96031.195
10 0 59635  25182.000000  0    6595838.606  -1823619.842   -807329.341
10 0 59635  25302.000000  0    6388673.870  -1950153.475  -1696491.306
10 0 59635  25422.000000  0    6068147.522  -2038037.623  -2555839.175
10 0 59635  25542.000000  0    5640655.727  -2083843.089  -3370311.572
10 0 59635  25662.000000  0    5114510.114  -2085008.947  -4125667.608
10 0 59635  25782.000000  0    4499765.940  -2039915.331  -4808735.125
10 0 59635  25902.000000  0    3808019.162  -1947936.214  -5407636.648
10 0 59635  26022.000000  0    3052177.528  -1809471.003  -5911987.742
10 0 59635  26142.000000  0    2246213.894  -1625954.264  -6313065.826
10 0 59635  26262.000000  0    1404905.960  -1399843.998  -6603950.999
10 0 59635  26382.000000  0     543564.836  -1134588.946  -6779634.482
10 0 59635  26502.000000  0    -322239.885   -834576.366  -6837095.330
10 0 59635  26622.000000  0   -1176955.466   -505060.374  -6775346.179
10 0 59635  26742.000000  0   -2005318.889   -152072.032  -6595448.650
10 0 59635  26862.000000  0   -2792623.196    217688.276  -6300496.042
10 0 59635  26982.000000  0   -3524972.486    596973.644  -5895565.787
10 0 59635  27102.000000  0   -4189525.006    978128.064  -5387642.319
10 0 59635  27222.000000  0   -4774720.060   1353235.613  -4785507.663
10 0 59635  27342.000000  0   -5270484.988   1714280.842  -4099602.334
10 0 59635  27462.000000  0   -5668417.107   2053316.695  -3341853.777
10 0 59635  27582.000000  0   -5961936.413   2362635.103  -2525477.042
10 0 59635  27702.000000  0   -6146406.303   2634937.833  -1664749.044
10 0 59635  27822.000000  0   -6219217.895   2863503.541   -774759.515
10 0 59635  27942.000000  0   -6179835.276   3042346.566    128856.964
10 0 59635  28062.000000  0   -6029798.917   3166362.598   1030203.015
10 0 59635  28182.000000  0   -5772685.936   3231457.809   1913406.870
10 0 59635  28302.000000  0   -5414029.298   3234657.708   2762910.930
10 0 59635  28422.000000  0   -4961198.160   3174193.118   3563753.759
10 0 59635  28542.000000  0   -4423242.100   3049560.458   4301840.618
10 0 59635  28662.000000  0   -3810703.101   2861555.018   4964194.727
10 0 59635  28782.000000  0   -3135402.160   2612277.750   5539185.371
10 0 59635  28902.000000  0   -2410204.037   2305115.701   6016730.875
10 0 59635  29022.000000  0   -1648765.292   1944695.364   6388471.001
10 0 59635  29142.000000  0    -865271.784   1536810.894   6647906.953
10 0 59635  29262.000000  0     -74172.719   1088328.817   6790507.575
10 0 59635  29382.000000  0     710085.356    607071.057   6813783.623
10 0 59635  29502.000000  0    1473321.568    101678.475   6717328.222
10 0 59635  29622.000000  0    2201875.917   -418543.461   6502823.830
10 0 59635  29742.000000  0    2882853.273   -943795.536   6174015.639
10 0 59635  29862.000000  0    3504353.192  -1463968.274   5736650.962
10 0 59635  29982.000000  0    4055681.748  -1968836.302   5198384.249
10 0 59635  30102.000000  0    4527539.786  -2448259.338   4568648.359
10 0 59635  30222.000000  0    4912186.212  -2892386.822   3858495.592
10 0 59635  30342.000000  0    5203573.208  -3291862.540   3080407.195
10 0 59635  30462.000000  0    5397448.262  -3638022.938   2248073.245
10 0 59635  30582.000000  0    5491419.512  -3923085.133   1376149.138
10 0 59635  30702.000000  0    5484984.661  -4140320.803    479992.500
10 0 59635  30822.000000  0    5379521.685  -4284209.669   -424614.649
10 0 59635  30942.000000  0    5178241.582  -4350570.285  -1321752.776
10 0 59635  31062.000000  0    4886103.627  -4336662.944  -2195654.000
10 0 59635  31182.000000  0    4509695.703  -4241262.984  -3030986.612
10 0 59635  31302.000000  0    4057083.652  -4064703.244  -3813128.595
10 0 59635  31422.000000  0    3537633.464  -3808884.292  -4528424.777
10 0 59635  31542.000000  0    2961811.720  -3477253.642  -5164422.362
10 0 59635  31662.000000  0    2340969.251  -3074754.661  -5710080.826
10 0 59635  31782.000000  0    1687114.576  -2607747.990  -6155952.876
10 0 59635  31902.000000  0    1012681.341  -2083907.736  -6494338.234
10 0 59635  32022.000000  0     330292.235  -1512091.647  -6719406.718
10 0 59635  32142.000000  0    -347474.300   -902189.951  -6827287.768
10 0 59635  32262.000000  0   -1008310.460   -264956.105  -6816128.642
10 0 59635  32382.000000  0   -1640397.057    388178.561  -6686122.457
10 0 59635  32502.000000  0   -2232610.040   1045304.575  -6439504.578
10 0 59635  32622.000000  0   -2774711.657   1694245.871  -6080518.418
10 0 59635  32742.000000  0   -3257525.000   2322779.897  -5615350.736
10 0 59635  32862.000000  0   -3673090.402   2918864.657  -5052036.854
10 0 59635  32982.000000  0   -4014801.170   3470868.816  -4400333.437
10 0 59635  33102.000000  0   -4277514.058   3967799.743  -3671559.209
10 0 59635  33222.000000  0   -4457631.421   4399525.302  -2878407.386
10 0 59635  33342.000000  0   -4553155.507   4756985.003  -2034731.169
10 0 59635  33462.000000  0   -4563711.776   5032384.404  -1155304.606
10 0 59635  33582.000000  0   -4490541.068   5219369.512   -255562.777
10 0 59635  33702.000000  0   -4336457.336   5313174.346    648675.418
10 0 59635  33822.000000  0   -4105773.969   5310737.819   1541492.200
10 0 59635  33942.000000  0   -3804199.412   5210786.827   2407161.956
10 0 59635  34062.000000  0   -3438703.236   5013881.336   3230437.626
10 0 59635  34182.000000  0   -3017357.442   4722422.678   3996825.775
10 0 59635  34302.000000  0   -2549158.712   4340625.477   4692846.078
10 0 59635  34422.000000  0   -2043834.618   3874452.832   5306270.592
10 0 59635  34542.000000  0   -1511639.243   3331516.655   5826337.767
10 0 59635  34662.000000  0    -963142.558   2720946.234   6243937.321
10 0 59635  34782.000000  0    -409019.282   2053227.994   6551763.349
10 0 59635  34902.000000  0     140158.162   1340021.839   6744435.762
10 0 59635  35022.000000  0     674121.146    593954.784   6818589.427
10 0 59635  35142.000000  0    1183096.040   -171602.875   6772928.339
10 0 59635  35262.000000  0    1657982.093   -942776.219   6608247.741
10 0 59635  35382.000000  0    2090513.946  -1705436.853   6327421.379
10 0 59635  35502.000000  0    2473406.081  -2445461.141   5935355.317
10 0 59635  35622.000000  0    2800477.696  -3148993.139   5438907.634
10 0 59635  35742.000000  0    3066754.653  -3802706.577   4846773.844
10 0 59635  35862.000000  0    3268547.224  -4394061.296   4169340.444
10 0 59635  35982.000000  0    3403502.785  -4911550.335   3418506.752
10 0 59635  36102.000000  0    3470630.656  -5344930.376   2607477.115
10 0 59635  36222.000000  0    3470299.229  -5685431.452   1750527.403
10 0 59635  36342.000000  0    3404204.372  -5925940.046    862749.472
10 0 59635  36462.000000  0    3275310.519  -6061149.636    -40220.790
10 0 59635  36582.000000  0    3087766.789  -6087678.245   -942486.044
99
